start=new Date('2021-12-13T00:00:00.000Z').valueOf();
sats=[{"SEMIMAJOR_AXIS":"6678.223","TLE_LINE1":"1 48004U 21024AD  21346.91668981  .00238855  32117-4  75865-3 0  9992","ELEMENT_SET_NO":"999","GP_ID":"191586145","TLE_LINE2":"2 48004  53.0413 332.4762 0001586  58.4789 224.3115 15.90784773  3699","CLASSIFICATION_TYPE":"U","MEAN_MOTION_DDOT":"0.0000321170000","OBJECT_NAME":"STARLINK-2261","OBJECT_TYPE":"PAYLOAD","MEAN_ANOMALY":"224.3115","MEAN_MOTION":"15.90784773","REV_AT_EPOCH":"369","RA_OF_ASC_NODE":"332.4762","FILE":"3238376","BSTAR":"0.00075865000000","MEAN_ELEMENT_THEORY":"SGP4","DECAY_DATE":null,"PERIOD":"90.521","RCS_SIZE":"LARGE","NORAD_CAT_ID":"48004","CENTER_NAME":"EARTH","EPHEMERIS_TYPE":"0","INCLINATION":"53.0413","SITE":"AFETR","ARG_OF_PERICENTER":"58.4789","EPOCH":"2021-12-12T22:00:01.999584","TIME_SYSTEM":"UTC","APOAPSIS":"301.147","REF_FRAME":"TEME","OBJECT_ID":"2021-024AD","ECCENTRICITY":"0.00015860","LAUNCH_DATE":"2021-03-24","PERIAPSIS":"299.028","MEAN_MOTION_DOT":"0.00238855","COUNTRY_CODE":"US"},{"REF_FRAME":"TEME","OBJECT_ID":"2021-024AE","APOAPSIS":"547.937","TIME_SYSTEM":"UTC","EPOCH":"2021-12-12T22:04:54.016032","ARG_OF_PERICENTER":"133.9446","SITE":"AFETR","EPHEMERIS_TYPE":"0","INCLINATION":"53.0569","COUNTRY_CODE":"US","PERIAPSIS":"546.535","MEAN_MOTION_DOT":"0.00000864","LAUNCH_DATE":"2021-03-24","ECCENTRICITY":"0.00010120","OBJECT_TYPE":"PAYLOAD","MEAN_MOTION_DDOT":"0.0000000000000","OBJECT_NAME":"STARLINK-2254","TLE_LINE2":"2 48005  53.0569  54.8353 0001012 133.9446 226.1627 15.06392577 41634","CLASSIFICATION_TYPE":"U","SEMIMAJOR_AXIS":"6925.371","TLE_LINE1":"1 48005U 21024AE  21346.92006963  .00000864  00000-0  76915-4 0  9997","ELEMENT_SET_NO":"999","GP_ID":"191586397","NORAD_CAT_ID":"48005","CENTER_NAME":"EARTH","MEAN_ELEMENT_THEORY":"SGP4","BSTAR":"0.00007691500000","PERIOD":"95.593","DECAY_DATE":null,"RCS_SIZE":"LARGE","RA_OF_ASC_NODE":"54.8353","FILE":"3238376","REV_AT_EPOCH":"4163","MEAN_MOTION":"15.06392577","MEAN_ANOMALY":"226.1627"},{"APOAPSIS":"294.661","REF_FRAME":"TEME","OBJECT_ID":"2021-024AG","EPOCH":"2021-12-12T22:00:01.999584","TIME_SYSTEM":"UTC","EPHEMERIS_TYPE":"0","INCLINATION":"53.0408","SITE":"AFETR","ARG_OF_PERICENTER":"90.7839","COUNTRY_CODE":"US","PERIAPSIS":"292.472","MEAN_MOTION_DOT":"0.00620472","LAUNCH_DATE":"2021-03-24","ECCENTRICITY":"0.00016400","MEAN_MOTION_DDOT":"0.0001666500000","OBJECT_NAME":"STARLINK-2259","OBJECT_TYPE":"PAYLOAD","ELEMENT_SET_NO":"999","TLE_LINE1":"1 48007U 21024AG  21346.91668981  .00620472  16665-3  17336-2 0  9992","SEMIMAJOR_AXIS":"6671.701","GP_ID":"191587644","CLASSIFICATION_TYPE":"U","TLE_LINE2":"2 48007  53.0408 332.4514 0001640  90.7839 203.5702 15.93117708  3925","MEAN_ELEMENT_THEORY":"SGP4","BSTAR":"0.00173360000000","DECAY_DATE":null,"PERIOD":"90.389","RCS_SIZE":"LARGE","NORAD_CAT_ID":"48007","CENTER_NAME":"EARTH","REV_AT_EPOCH":"392","RA_OF_ASC_NODE":"332.4514","FILE":"3238376","MEAN_MOTION":"15.93117708","MEAN_ANOMALY":"203.5702"},{"REF_FRAME":"TEME","OBJECT_ID":"2021-024AH","APOAPSIS":"548.657","TIME_SYSTEM":"UTC","EPOCH":"2021-12-12T22:00:01.999584","SITE":"AFETR","ARG_OF_PERICENTER":"41.1649","EPHEMERIS_TYPE":"0","INCLINATION":"53.0524","COUNTRY_CODE":"US","PERIAPSIS":"545.962","MEAN_MOTION_DOT":"0.00037407","LAUNCH_DATE":"2021-03-24","ECCENTRICITY":"0.00019460","OBJECT_TYPE":"PAYLOAD","OBJECT_NAME":"STARLINK-2271","MEAN_MOTION_DDOT":"0.0000000000000","TLE_LINE2":"2 48008  53.0524 349.8244 0001946  41.1649 183.2768 15.06368694  3589","CLASSIFICATION_TYPE":"U","SEMIMAJOR_AXIS":"6925.445","TLE_LINE1":"1 48008U 21024AH  21346.91668981  .00037407  00000-0  25190-2 0  9993","ELEMENT_SET_NO":"999","GP_ID":"191587900","NORAD_CAT_ID":"48008","CENTER_NAME":"EARTH","BSTAR":"0.00251900000000","MEAN_ELEMENT_THEORY":"SGP4","DECAY_DATE":null,"PERIOD":"95.594","RCS_SIZE":"LARGE","RA_OF_ASC_NODE":"349.8244","FILE":"3238376","REV_AT_EPOCH":"358","MEAN_MOTION":"15.06368694","MEAN_ANOMALY":"183.2768"},{"PERIAPSIS":"546.484","MEAN_MOTION_DOT":"0.00000812","COUNTRY_CODE":"US","ECCENTRICITY":"0.00010850","LAUNCH_DATE":"2021-03-24","TIME_SYSTEM":"UTC","EPOCH":"2021-12-12T16:06:35.176608","REF_FRAME":"TEME","OBJECT_ID":"2021-024AJ","APOAPSIS":"547.987","SITE":"AFETR","ARG_OF_PERICENTER":"79.2071","EPHEMERIS_TYPE":"0","INCLINATION":"53.0559","RA_OF_ASC_NODE":"65.9289","FILE":"3238376","REV_AT_EPOCH":"4146","NORAD_CAT_ID":"48009","CENTER_NAME":"EARTH","MEAN_ELEMENT_THEORY":"SGP4","BSTAR":"0.00007338700000","DECAY_DATE":null,"RCS_SIZE":"LARGE","PERIOD":"95.593","MEAN_ANOMALY":"280.9040","MEAN_MOTION":"15.06392833","OBJECT_TYPE":"PAYLOAD","MEAN_MOTION_DDOT":"0.0000000000000","OBJECT_NAME":"STARLINK-2153","TLE_LINE2":"2 48009  53.0559  65.9289 0001085  79.2071 280.9040 15.06392833 41467","CLASSIFICATION_TYPE":"U","ELEMENT_SET_NO":"999","TLE_LINE1":"1 48009U 21024AJ  21346.67124047  .00000812  00000-0  73387-4 0  9990","SEMIMAJOR_AXIS":"6925.371","GP_ID":"191586646"},{"MEAN_ANOMALY":"277.1572","MEAN_MOTION":"15.06401491","FILE":"3238133","RA_OF_ASC_NODE":"86.5005","REV_AT_EPOCH":"4116","CENTER_NAME":"EARTH","NORAD_CAT_ID":"48010","DECAY_DATE":null,"PERIOD":"95.592","RCS_SIZE":"LARGE","BSTAR":"0.00006882000000","MEAN_ELEMENT_THEORY":"SGP4","CLASSIFICATION_TYPE":"U","TLE_LINE2":"2 48010  53.0527  86.5005 0001429  82.9580 277.1572 15.06401491 41163","GP_ID":"191556882","TLE_LINE1":"1 48010U 21024AK  21346.54869650  .00000744  00000-0  68820-4 0  9994","SEMIMAJOR_AXIS":"6925.344","ELEMENT_SET_NO":"999","OBJECT_TYPE":"PAYLOAD","OBJECT_NAME":"STARLINK-2226","MEAN_MOTION_DDOT":"0.0000000000000","ECCENTRICITY":"0.00014290","LAUNCH_DATE":"2021-03-24","MEAN_MOTION_DOT":"0.00000744","PERIAPSIS":"546.219","COUNTRY_CODE":"US","SITE":"AFETR","ARG_OF_PERICENTER":"82.9580","INCLINATION":"53.0527","EPHEMERIS_TYPE":"0","TIME_SYSTEM":"UTC","EPOCH":"2021-12-12T13:10:07.377600","OBJECT_ID":"2021-024AK","REF_FRAME":"TEME","APOAPSIS":"548.199"},{"APOAPSIS":"548.077","OBJECT_ID":"2021-024AL","REF_FRAME":"TEME","EPOCH":"2021-12-12T15:18:48.490272","TIME_SYSTEM":"UTC","INCLINATION":"53.0580","EPHEMERIS_TYPE":"0","ARG_OF_PERICENTER":"81.4481","SITE":"AFETR","COUNTRY_CODE":"US","MEAN_MOTION_DOT":"-0.00000738","PERIAPSIS":"546.352","LAUNCH_DATE":"2021-03-24","ECCENTRICITY":"0.00012450","OBJECT_NAME":"STARLINK-2272","MEAN_MOTION_DDOT":"0.0000000000000","OBJECT_TYPE":"PAYLOAD","GP_ID":"191587144","SEMIMAJOR_AXIS":"6925.350","TLE_LINE1":"1 48011U 21024AL  21346.63806123 -.00000738  00000-0 -30662-4 0  9999","ELEMENT_SET_NO":"999","TLE_LINE2":"2 48011  53.0580  66.0791 0001245  81.4481 278.6649 15.06399676 41519","CLASSIFICATION_TYPE":"U","DECAY_DATE":null,"PERIOD":"95.592","RCS_SIZE":"LARGE","BSTAR":"-0.00003066200000","MEAN_ELEMENT_THEORY":"SGP4","CENTER_NAME":"EARTH","NORAD_CAT_ID":"48011","REV_AT_EPOCH":"4151","FILE":"3238376","RA_OF_ASC_NODE":"66.0791","MEAN_MOTION":"15.06399676","MEAN_ANOMALY":"278.6649"},{"MEAN_ANOMALY":"294.0343","MEAN_MOTION":"15.06394534","REV_AT_EPOCH":"4185","RA_OF_ASC_NODE":"41.3579","FILE":"3238133","MEAN_ELEMENT_THEORY":"SGP4","BSTAR":"-0.00005136700000","DECAY_DATE":null,"RCS_SIZE":"LARGE","PERIOD":"95.592","NORAD_CAT_ID":"48012","CENTER_NAME":"EARTH","TLE_LINE1":"1 48012U 21024AM  21346.57681407 -.00001046  00000-0 -51367-4 0  9997","ELEMENT_SET_NO":"999","SEMIMAJOR_AXIS":"6925.365","GP_ID":"191557884","TLE_LINE2":"2 48012  53.0576  41.3579 0001462  66.0799 294.0343 15.06394534 41855","CLASSIFICATION_TYPE":"U","OBJECT_NAME":"STARLINK-2216","MEAN_MOTION_DDOT":"0.0000000000000","OBJECT_TYPE":"PAYLOAD","ECCENTRICITY":"0.00014620","LAUNCH_DATE":"2021-03-24","PERIAPSIS":"546.218","MEAN_MOTION_DOT":"-0.00001046","COUNTRY_CODE":"US","EPHEMERIS_TYPE":"0","INCLINATION":"53.0576","SITE":"AFETR","ARG_OF_PERICENTER":"66.0799","EPOCH":"2021-12-12T13:50:36.735648","TIME_SYSTEM":"UTC","APOAPSIS":"548.243","REF_FRAME":"TEME","OBJECT_ID":"2021-024AM"},{"EPHEMERIS_TYPE":"0","INCLINATION":"53.0559","ARG_OF_PERICENTER":"74.1270","SITE":"AFETR","EPOCH":"2021-12-12T11:04:44.193504","TIME_SYSTEM":"UTC","APOAPSIS":"548.190","REF_FRAME":"TEME","OBJECT_ID":"2021-024AN","ECCENTRICITY":"0.00013980","LAUNCH_DATE":"2021-03-24","PERIAPSIS":"546.254","MEAN_MOTION_DOT":"-0.00000594","COUNTRY_CODE":"US","TLE_LINE1":"1 48013U 21024AN  21346.46162261 -.00000594  00000-0 -21009-4 0  9995","ELEMENT_SET_NO":"999","SEMIMAJOR_AXIS":"6925.357","GP_ID":"191556632","CLASSIFICATION_TYPE":"U","TLE_LINE2":"2 48013  53.0559  51.8891 0001398  74.1270 285.9873 15.06397277 41643","MEAN_MOTION_DDOT":"0.0000000000000","OBJECT_NAME":"STARLINK-2243","OBJECT_TYPE":"PAYLOAD","MEAN_ANOMALY":"285.9873","MEAN_MOTION":"15.06397277","REV_AT_EPOCH":"4164","RA_OF_ASC_NODE":"51.8891","FILE":"3238133","MEAN_ELEMENT_THEORY":"SGP4","BSTAR":"-0.00002100900000","DECAY_DATE":null,"RCS_SIZE":"LARGE","PERIOD":"95.592","NORAD_CAT_ID":"48013","CENTER_NAME":"EARTH"},{"INCLINATION":"53.0541","EPHEMERIS_TYPE":"0","SITE":"AFETR","ARG_OF_PERICENTER":"67.5691","APOAPSIS":"550.761","OBJECT_ID":"2021-024AP","REF_FRAME":"TEME","EPOCH":"2021-12-12T22:00:01.999584","TIME_SYSTEM":"UTC","LAUNCH_DATE":"2021-03-24","ECCENTRICITY":"0.00014310","COUNTRY_CODE":"US","MEAN_MOTION_DOT":"0.00036705","PERIAPSIS":"548.778","GP_ID":"191586398","TLE_LINE1":"1 48014U 21024AP  21346.91668981  .00036705  00000-0  25262-2 0  9990","SEMIMAJOR_AXIS":"6927.904","ELEMENT_SET_NO":"999","CLASSIFICATION_TYPE":"U","TLE_LINE2":"2 48014  53.0541  13.5481 0001431  67.5691 194.0676 15.05566551  3579","MEAN_MOTION_DDOT":"0.0000000000000","OBJECT_NAME":"STARLINK-2283","OBJECT_TYPE":"PAYLOAD","MEAN_MOTION":"15.05566551","MEAN_ANOMALY":"194.0676","PERIOD":"95.645","DECAY_DATE":null,"RCS_SIZE":"LARGE","BSTAR":"0.00252620000000","MEAN_ELEMENT_THEORY":"SGP4","CENTER_NAME":"EARTH","NORAD_CAT_ID":"48014","REV_AT_EPOCH":"357","FILE":"3238376","RA_OF_ASC_NODE":"13.5481"}];
